{
  "type": "FeatureCollection",
  "features": [
    {
      "type": "Feature",
      "properties": {
        "norad_id": 30726,
        "name": "FENGYUN 1C DEB",
        "group": "fengyun-1c-debris",
        "lat": 45.76931271747871,
        "lon": 174.27767851336998,
        "alt_km": 870.4626366947541,
        "timestamp": "2025-12-08T23:34:04.247885+00:00",
        "meta_object_name": "FENGYUN 1C DEB",
        "meta_object_id": "1999-025ASL",
        "meta_epoch": "2025-12-08T13:18:30.214368",
        "meta_mean_motion": 14.09275468,
        "meta_eccentricity": 0.00781828,
        "meta_inclination": 99.2669,
        "meta_ra_of_asc_node": 344.1834,
        "meta_arg_of_pericenter": 237.9169,
        "meta_mean_anomaly": 248.755,
        "meta_ephemeris_type": 0,
        "meta_classification_type": "U",
        "meta_norad_cat_id": 30726,
        "meta_element_set_no": 999,
        "meta_rev_at_epoch": 95924,
        "meta_bstar": 0.0019600274,
        "meta_mean_motion_dot": 3.463e-05,
        "meta_mean_motion_ddot": 0,
        "tle_line1": "1 30726U 99025ASL 25342.55451637  .00003463  00000+0  19600-2 0  9998",
        "tle_line2": "2 30726  99.2669 344.1834 0078182 237.9169 248.7550 14.09275468959247"
      },
      "geometry": {
        "type": "Point",
        "coordinates": [
          174.27767851336998,
          45.76931271747871
        ]
      }
    },
    {
      "type": "Feature",
      "properties": {
        "norad_id": 30728,
        "name": "FENGYUN 1C DEB",
        "group": "fengyun-1c-debris",
        "lat": -31.88399997921702,
        "lon": 164.42530114978652,
        "alt_km": 854.2856314629435,
        "timestamp": "2025-12-08T23:34:04.247895+00:00",
        "meta_object_name": "FENGYUN 1C DEB",
        "meta_object_id": "1999-025ASN",
        "meta_epoch": "2025-12-07T17:54:19.774944",
        "meta_mean_motion": 14.23471502,
        "meta_eccentricity": 0.00995506,
        "meta_inclination": 98.5294,
        "meta_ra_of_asc_node": 348.5836,
        "meta_arg_of_pericenter": 96.361,
        "meta_mean_anomaly": 264.8917,
        "meta_ephemeris_type": 0,
        "meta_classification_type": "U",
        "meta_norad_cat_id": 30728,
        "meta_element_set_no": 999,
        "meta_rev_at_epoch": 97618,
        "meta_bstar": 0.00012931569,
        "meta_mean_motion_dot": 2.68e-06,
        "meta_mean_motion_ddot": 0,
        "tle_line1": "1 30728U 99025ASN 25341.74606221  .00000268  00000+0  12932-3 0  9993",
        "tle_line2": "2 30728  98.5294 348.5836 0099550  96.3610 264.8917 14.23471502976186"
      },
      "geometry": {
        "type": "Point",
        "coordinates": [
          164.42530114978652,
          -31.88399997921702
        ]
      }
    },
    {
      "type": "Feature",
      "properties": {
        "norad_id": 30730,
        "name": "FENGYUN 1C DEB",
        "group": "fengyun-1c-debris",
        "lat": 55.649998654570766,
        "lon": -145.01030133579997,
        "alt_km": 775.6509301675305,
        "timestamp": "2025-12-08T23:34:04.247905+00:00",
        "meta_object_name": "FENGYUN 1C DEB",
        "meta_object_id": "1999-025ASQ",
        "meta_epoch": "2025-12-08T01:23:51.305280",
        "meta_mean_motion": 14.25443514,
        "meta_eccentricity": 0.0078694,
        "meta_inclination": 98.6182,
        "meta_ra_of_asc_node": 21.261,
        "meta_arg_of_pericenter": 62.974,
        "meta_mean_anomaly": 1.8581,
        "meta_ephemeris_type": 0,
        "meta_classification_type": "U",
        "meta_norad_cat_id": 30730,
        "meta_element_set_no": 999,
        "meta_rev_at_epoch": 96939,
        "meta_bstar": 0.0013376535,
        "meta_mean_motion_dot": 3.22e-05,
        "meta_mean_motion_ddot": 0,
        "tle_line1": "1 30730U 99025ASQ 25342.05823270  .00003220  00000+0  13377-2 0  9990",
        "tle_line2": "2 30730  98.6182  21.2610 0078694  62.9740   1.8581 14.25443514969395"
      },
      "geometry": {
        "type": "Point",
        "coordinates": [
          -145.01030133579997,
          55.649998654570766
        ]
      }
    },
    {
      "type": "Feature",
      "properties": {
        "norad_id": 30731,
        "name": "FENGYUN 1C DEB",
        "group": "fengyun-1c-debris",
        "lat": 68.53563177490263,
        "lon": 38.87947995800626,
        "alt_km": 756.506795262565,
        "timestamp": "2025-12-08T23:34:04.247915+00:00",
        "meta_object_name": "FENGYUN 1C DEB",
        "meta_object_id": "1999-025ASR",
        "meta_epoch": "2025-12-08T05:13:09.314688",
        "meta_mean_motion": 14.41667386,
        "meta_eccentricity": 0.00144413,
        "meta_inclination": 98.8597,
        "meta_ra_of_asc_node": 61.4584,
        "meta_arg_of_pericenter": 258.2155,
        "meta_mean_anomaly": 166.5442,
        "meta_ephemeris_type": 0,
        "meta_classification_type": "U",
        "meta_norad_cat_id": 30731,
        "meta_element_set_no": 999,
        "meta_rev_at_epoch": 97291,
        "meta_bstar": 0.0027996668,
        "meta_mean_motion_dot": 9.097e-05,
        "meta_mean_motion_ddot": 0,
        "tle_line1": "1 30731U 99025ASR 25342.21746892  .00009097  00000+0  27997-2 0  9994",
        "tle_line2": "2 30731  98.8597  61.4584 0014441 258.2155 166.5442 14.41667386972914"
      },
      "geometry": {
        "type": "Point",
        "coordinates": [
          38.87947995800626,
          68.53563177490263
        ]
      }
    },
    {
      "type": "Feature",
      "properties": {
        "norad_id": 30732,
        "name": "FENGYUN 1C DEB",
        "group": "fengyun-1c-debris",
        "lat": -28.03946818823282,
        "lon": 7.946938775676918,
        "alt_km": 918.9336940811518,
        "timestamp": "2025-12-08T23:34:04.247926+00:00",
        "meta_object_name": "FENGYUN 1C DEB",
        "meta_object_id": "1999-025ASS",
        "meta_epoch": "2025-12-08T14:03:01.764576",
        "meta_mean_motion": 14.03893519,
        "meta_eccentricity": 0.01237639,
        "meta_inclination": 98.8045,
        "meta_ra_of_asc_node": 2.8279,
        "meta_arg_of_pericenter": 220.704,
        "meta_mean_anomaly": 266.5858,
        "meta_ephemeris_type": 0,
        "meta_classification_type": "U",
        "meta_norad_cat_id": 30732,
        "meta_element_set_no": 999,
        "meta_rev_at_epoch": 96133,
        "meta_bstar": 0.000826368,
        "meta_mean_motion_dot": 1.353e-05,
        "meta_mean_motion_ddot": 0,
        "tle_line1": "1 30732U 99025ASS 25342.58543709  .00001353  00000+0  82637-3 0  9997",
        "tle_line2": "2 30732  98.8045   2.8279 0123763 220.7040 266.5858 14.03893519961331"
      },
      "geometry": {
        "type": "Point",
        "coordinates": [
          7.946938775676918,
          -28.03946818823282
        ]
      }
    },
    {
      "type": "Feature",
      "properties": {
        "norad_id": 30735,
        "name": "FENGYUN 1C DEB",
        "group": "fengyun-1c-debris",
        "lat": -68.39806495395078,
        "lon": 76.9855139082096,
        "alt_km": 784.0212486830724,
        "timestamp": "2025-12-08T23:34:04.247937+00:00",
        "meta_object_name": "FENGYUN 1C DEB",
        "meta_object_id": "1999-025ASV",
        "meta_epoch": "2025-12-08T03:47:51.801216",
        "meta_mean_motion": 14.2391227,
        "meta_eccentricity": 0.00592297,
        "meta_inclination": 98.7639,
        "meta_ra_of_asc_node": 53.2361,
        "meta_arg_of_pericenter": 258.1146,
        "meta_mean_anomaly": 131.1031,
        "meta_ephemeris_type": 0,
        "meta_classification_type": "U",
        "meta_norad_cat_id": 30735,
        "meta_element_set_no": 999,
        "meta_rev_at_epoch": 96683,
        "meta_bstar": 0.0022795015,
        "meta_mean_motion_dot": 5.279e-05,
        "meta_mean_motion_ddot": 0,
        "tle_line1": "1 30735U 99025ASV 25342.15823844  .00005279  00000+0  22795-2 0  9993",
        "tle_line2": "2 30735  98.7639  53.2361 0059229 258.1146 131.1031 14.23912270966839"
      },
      "geometry": {
        "type": "Point",
        "coordinates": [
          76.9855139082096,
          -68.39806495395078
        ]
      }
    },
    {
      "type": "Feature",
      "properties": {
        "norad_id": 30736,
        "name": "FENGYUN 1C DEB",
        "group": "fengyun-1c-debris",
        "lat": -59.342871871910354,
        "lon": 36.406889535578536,
        "alt_km": 1150.6639179184085,
        "timestamp": "2025-12-08T23:34:04.247947+00:00",
        "meta_object_name": "FENGYUN 1C DEB",
        "meta_object_id": "1999-025ASW",
        "meta_epoch": "2025-12-06T16:01:27.387840",
        "meta_mean_motion": 13.61611053,
        "meta_eccentricity": 0.02800041,
        "meta_inclination": 98.7811,
        "meta_ra_of_asc_node": 19.2067,
        "meta_arg_of_pericenter": 70.187,
        "meta_mean_anomaly": 53.7062,
        "meta_ephemeris_type": 0,
        "meta_classification_type": "U",
        "meta_norad_cat_id": 30736,
        "meta_element_set_no": 999,
        "meta_rev_at_epoch": 92770,
        "meta_bstar": 0.0030781788,
        "meta_mean_motion_dot": 3.026e-05,
        "meta_mean_motion_ddot": 0,
        "tle_line1": "1 30736U 99025ASW 25340.66767810  .00003026  00000+0  30782-2 0  9991",
        "tle_line2": "2 30736  98.7811  19.2067 0280004  70.1870  53.7062 13.61611053927702"
      },
      "geometry": {
        "type": "Point",
        "coordinates": [
          36.406889535578536,
          -59.342871871910354
        ]
      }
    }
  ]
}